{
  "type": "FeatureCollection",
  "features": [
    {
      "type": "Feature",
      "properties": {
        "norad_id": 41890,
        "name": "CYGFM07",
        "group": "weather",
        "lat": 25.565245265508246,
        "lon": 99.45547558955468,
        "alt_km": 417.15567613680287,
        "timestamp": "2025-12-21T16:47:54.371852+00:00",
        "meta_object_name": "CYGFM07",
        "meta_object_id": "2016-078G",
        "meta_epoch": "2025-12-21T06:57:46.804320",
        "meta_mean_motion": 15.50339451,
        "meta_eccentricity": 0.0009994,
        "meta_inclination": 34.9486,
        "meta_ra_of_asc_node": 325.3781,
        "meta_arg_of_pericenter": 288.0026,
        "meta_mean_anomaly": 71.9607,
        "meta_ephemeris_type": 0,
        "meta_classification_type": "U",
        "meta_norad_cat_id": 41890,
        "meta_element_set_no": 999,
        "meta_rev_at_epoch": 50128,
        "meta_bstar": 0.00032617,
        "meta_mean_motion_dot": 0.0001912,
        "meta_mean_motion_ddot": 0,
        "tle_line1": "1 41890U 16078G   25355.29012505  .00019120  00000+0  32617-3 0  9992",
        "tle_line2": "2 41890  34.9486 325.3781 0009994 288.0026  71.9607 15.50339451501286"
      },
      "geometry": {
        "type": "Point",
        "coordinates": [
          99.45547558955468,
          25.565245265508246
        ]
      }
    },
    {
      "type": "Feature",
      "properties": {
        "norad_id": 41891,
        "name": "CYGFM03",
        "group": "weather",
        "lat": -20.391388108877486,
        "lon": -67.55162857943358,
        "alt_km": 412.30541665694,
        "timestamp": "2025-12-21T16:47:54.371863+00:00",
        "meta_object_name": "CYGFM03",
        "meta_object_id": "2016-078H",
        "meta_epoch": "2025-12-21T07:41:09.974976",
        "meta_mean_motion": 15.50235912,
        "meta_eccentricity": 0.0009662,
        "meta_inclination": 34.9438,
        "meta_ra_of_asc_node": 327.1044,
        "meta_arg_of_pericenter": 275.8408,
        "meta_mean_anomaly": 84.1213,
        "meta_ephemeris_type": 0,
        "meta_classification_type": "U",
        "meta_norad_cat_id": 41891,
        "meta_element_set_no": 999,
        "meta_rev_at_epoch": 50126,
        "meta_bstar": 0.00032821,
        "meta_mean_motion_dot": 0.00019168,
        "meta_mean_motion_ddot": 0,
        "tle_line1": "1 41891U 16078H   25355.32025434  .00019168  00000+0  32821-3 0  9991",
        "tle_line2": "2 41891  34.9438 327.1044 0009662 275.8408  84.1213 15.50235912501260"
      },
      "geometry": {
        "type": "Point",
        "coordinates": [
          -67.55162857943358,
          -20.391388108877486
        ]
      }
    },
    {
      "type": "Feature",
      "properties": {
        "norad_id": 43010,
        "name": "FENGYUN 3D",
        "group": "weather",
        "lat": 55.25178705870652,
        "lon": -51.04758699456105,
        "alt_km": 821.2634318317168,
        "timestamp": "2025-12-21T16:47:54.371875+00:00",
        "meta_object_name": "FENGYUN 3D",
        "meta_object_id": "2017-072A",
        "meta_epoch": "2025-12-21T13:09:04.500864",
        "meta_mean_motion": 14.19686324,
        "meta_eccentricity": 0.0001369,
        "meta_inclination": 98.9899,
        "meta_ra_of_asc_node": 321.9899,
        "meta_arg_of_pericenter": 155.66,
        "meta_mean_anomaly": 204.464,
        "meta_ephemeris_type": 0,
        "meta_classification_type": "U",
        "meta_norad_cat_id": 43010,
        "meta_element_set_no": 999,
        "meta_rev_at_epoch": 41978,
        "meta_bstar": 9.4973e-05,
        "meta_mean_motion_dot": 1.55e-06,
        "meta_mean_motion_ddot": 0,
        "tle_line1": "1 43010U 17072A   25355.54796876  .00000155  00000+0  94973-4 0  9993",
        "tle_line2": "2 43010  98.9899 321.9899 0001369 155.6600 204.4640 14.19686324419788"
      },
      "geometry": {
        "type": "Point",
        "coordinates": [
          -51.04758699456105,
          55.25178705870652
        ]
      }
    },
    {
      "type": "Feature",
      "properties": {
        "norad_id": 43013,
        "name": "NOAA 20 (JPSS-1)",
        "group": "weather",
        "lat": -23.263980513133003,
        "lon": 108.09756521308621,
        "alt_km": 833.3136782005122,
        "timestamp": "2025-12-21T16:47:54.371887+00:00",
        "meta_object_name": "NOAA 20 (JPSS-1)",
        "meta_object_id": "2017-073A",
        "meta_epoch": "2025-12-21T10:46:05.653920",
        "meta_mean_motion": 14.19527867,
        "meta_eccentricity": 0.0002126,
        "meta_inclination": 98.7611,
        "meta_ra_of_asc_node": 291.6505,
        "meta_arg_of_pericenter": 74.7648,
        "meta_mean_anomaly": 285.3763,
        "meta_ephemeris_type": 0,
        "meta_classification_type": "U",
        "meta_norad_cat_id": 43013,
        "meta_element_set_no": 999,
        "meta_rev_at_epoch": 41925,
        "meta_bstar": 5.2399e-05,
        "meta_mean_motion_dot": 6.6e-07,
        "meta_mean_motion_ddot": 0,
        "tle_line1": "1 43013U 17073A   25355.44867655  .00000066  00000+0  52399-4 0  9997",
        "tle_line2": "2 43013  98.7611 291.6505 0002126  74.7648 285.3763 14.19527867419255"
      },
      "geometry": {
        "type": "Point",
        "coordinates": [
          108.09756521308621,
          -23.263980513133003
        ]
      }
    },
    {
      "type": "Feature",
      "properties": {
        "norad_id": 43226,
        "name": "GOES 17",
        "group": "weather",
        "lat": 0.10814963936619496,
        "lon": -107.0414488327886,
        "alt_km": 35774.80321282853,
        "timestamp": "2025-12-21T16:47:54.371900+00:00",
        "meta_object_name": "GOES 17",
        "meta_object_id": "2018-022A",
        "meta_epoch": "2025-12-21T11:03:34.161984",
        "meta_mean_motion": 1.0027043,
        "meta_eccentricity": 0.0003109,
        "meta_inclination": 0.4788,
        "meta_ra_of_asc_node": 89.1269,
        "meta_arg_of_pericenter": 191.6701,
        "meta_mean_anomaly": 245.8663,
        "meta_ephemeris_type": 0,
        "meta_classification_type": "U",
        "meta_norad_cat_id": 43226,
        "meta_element_set_no": 999,
        "meta_rev_at_epoch": 2864,
        "meta_bstar": 0,
        "meta_mean_motion_dot": -1.6e-06,
        "meta_mean_motion_ddot": 0,
        "tle_line1": "1 43226U 18022A   25355.46081206 -.00000160  00000+0  00000+0 0  9993",
        "tle_line2": "2 43226   0.4788  89.1269 0003109 191.6701 245.8663  1.00270430 28640"
      },
      "geometry": {
        "type": "Point",
        "coordinates": [
          -107.0414488327886,
          0.10814963936619496
        ]
      }
    },
    {
      "type": "Feature",
      "properties": {
        "norad_id": 43491,
        "name": "FENGYUN 2H",
        "group": "weather",
        "lat": -0.8327202357638119,
        "lon": 61.85638462729161,
        "alt_km": 35796.33818599389,
        "timestamp": "2025-12-21T16:47:54.371924+00:00",
        "meta_object_name": "FENGYUN 2H",
        "meta_object_id": "2018-050A",
        "meta_epoch": "2025-12-21T11:51:47.920896",
        "meta_mean_motion": 1.00271144,
        "meta_eccentricity": 0.0002365,
        "meta_inclination": 2.5723,
        "meta_ra_of_asc_node": 81.2378,
        "meta_arg_of_pericenter": 166.1034,
        "meta_mean_anomaly": 100.2711,
        "meta_ephemeris_type": 0,
        "meta_classification_type": "U",
        "meta_norad_cat_id": 43491,
        "meta_element_set_no": 999,
        "meta_rev_at_epoch": 2765,
        "meta_bstar": 0,
        "meta_mean_motion_dot": -1.09e-06,
        "meta_mean_motion_ddot": 0,
        "tle_line1": "1 43491U 18050A   25355.49430464 -.00000109  00000+0  00000+0 0  9998",
        "tle_line2": "2 43491   2.5723  81.2378 0002365 166.1034 100.2711  1.00271144 27650"
      },
      "geometry": {
        "type": "Point",
        "coordinates": [
          61.85638462729161,
          -0.8327202357638119
        ]
      }
    },
    {
      "type": "Feature",
      "properties": {
        "norad_id": 43689,
        "name": "METOP-C",
        "group": "weather",
        "lat": 46.71431176714631,
        "lon": 43.98488212467545,
        "alt_km": 815.6360806619668,
        "timestamp": "2025-12-21T16:47:54.371935+00:00",
        "meta_object_name": "METOP-C",
        "meta_object_id": "2018-087A",
        "meta_epoch": "2025-12-21T09:49:07.763232",
        "meta_mean_motion": 14.21487507,
        "meta_eccentricity": 8.29e-05,
        "meta_inclination": 98.6917,
        "meta_ra_of_asc_node": 53.0454,
        "meta_arg_of_pericenter": 23.8436,
        "meta_mean_anomaly": 336.2779,
        "meta_ephemeris_type": 0,
        "meta_classification_type": "U",
        "meta_norad_cat_id": 43689,
        "meta_element_set_no": 999,
        "meta_rev_at_epoch": 36957,
        "meta_bstar": 7.3499e-05,
        "meta_mean_motion_dot": 1.17e-06,
        "meta_mean_motion_ddot": 0,
        "tle_line1": "1 43689U 18087A   25355.40911763  .00000117  00000+0  73499-4 0  9999",
        "tle_line2": "2 43689  98.6917  53.0454 0000829  23.8436 336.2779 14.21487507369574"
      },
      "geometry": {
        "type": "Point",
        "coordinates": [
          43.98488212467545,
          46.71431176714631
        ]
      }
    }
  ]
}